IDEFIX & ARIANE 42P R/B 
1 27422U 02021B   26025.07510038  .00000621  00000+0  25270-3 0  9998
2 27422  98.5830 324.2148 0011176 320.9119  39.1256 14.30990686237786
AQUA                    
1 27424U 02022A   26025.22169280  .00001965  00000+0  40301-3 0  9991
2 27424  98.4099 351.8218 0001902  66.1120 348.8694 14.61858181262382
CZ-4B R/B               
1 27432U 02024C   26025.14722701  .00000109  00000+0  78839-4 0  9993
2 27432  98.8932  78.7536 0050777 145.8294 276.0939 14.14538961223087
MIDORI II (ADEOS-II)    
1 27597U 02056A   26025.12020247  .00000667  00000+0  28022-3 0  9991
2 27597  98.7698 343.3188 0001986 104.0676 256.0726 14.29247591204072
H-2A R/B                
1 27601U 02056E   26024.47130817  .00000682  00000+0  25404-3 0  9997
2 27601  98.3126 346.5424 0069163 293.9150 175.7162 14.33723309207776
CZ-4B R/B               
1 28059U 03049C   26024.92172022  .00000913  00000+0  22068-3 0  9992
2 28059  98.6829  18.1274 0048392   6.6949 353.4883 14.54964845180239
CZ-2C R/B               
1 28222U 04012C   26025.10965230  .00059690  00000+0  74433-3 0  9996
2 28222  97.7332  86.4217 0016980 110.7853 249.5223 15.59534460197473
SL-16 R/B               
1 28353U 04021B   26025.11011102 -.00000160  00000+0 -58459-4 0  9993
2 28353  71.0026 323.9491 0002637 120.1432 239.9952 14.14591904116679
CZ-4B R/B               
1 28415U 04035C   26025.05143684  .00012059  00000+0  43350-3 0  9992
2 28415  97.3566  59.8305 0034148 122.0054 238.4512 15.28215245173249
CZ-2C R/B               
1 28480U 04046B   26024.73135769  .00000324  00000+0  13637-3 0  9992
2 28480  98.2000 302.4433 0138281 285.0750  73.5167 14.26972557102237
ARIANE 5 R/B            
1 28499U 04049H   26024.90905612  .00001851  00000+0  20950-3 0  9998
2 28499  98.2557 191.7496 0085260 132.4462 228.4002 14.85158326139295
CZ-2D R/B               
1 28738U 05024B   26024.97566576  .00046565  00000+0  66045-3 0  9993
2 28738  97.3629  38.6479 0005683 155.8671 204.2851 15.56299723132971
